[{"OBJECT_NAME":"LYNK TOWER 5","OBJECT_ID":"2024-043Z","EPOCH":"2026-03-09T22:11:51.175104","MEAN_MOTION":15.29454506,"ECCENTRICITY":0.00104056,"INCLINATION":97.5458,"RA_OF_ASC_NODE":204.7305,"ARG_OF_PERICENTER":234.6422,"MEAN_ANOMALY":125.3846,"EPHEMERIS_TYPE":0,"CLASSIFICATION_TYPE":"U","NORAD_CAT_ID":59121,"ELEMENT_SET_NO":999,"REV_AT_EPOCH":11186,"BSTAR":0.00031901545,"MEAN_MOTION_DOT":9.048e-5,"MEAN_MOTION_DDOT":0},{"OBJECT_NAME":"STARLINK-31305","OBJECT_ID":"2024-049B","EPOCH":"2026-03-09T06:23:06.919584","MEAN_MOTION":15.27570268,"ECCENTRICITY":0.00012979,"INCLINATION":43.0033,"RA_OF_ASC_NODE":145.7122,"ARG_OF_PERICENTER":267.3555,"MEAN_ANOMALY":92.7148,"EPHEMERIS_TYPE":0,"CLASSIFICATION_TYPE":"U","NORAD_CAT_ID":59232,"ELEMENT_SET_NO":999,"REV_AT_EPOCH":11232,"BSTAR":-0.00011838441,"MEAN_MOTION_DOT":-3.517e-5,"MEAN_MOTION_DDOT":0}]
